{
  "type": "FeatureCollection",
  "name": "bhuvan_cropland_hooghly",
  "crs": {
    "type": "name",
    "properties": {
      "name": "urn:ogc:def:crs:OGC:1.3:CRS84"
    }
  },
  "features": [
    {
      "type": "Feature",
      "properties": {
        "id": "CROPLAND-HOOGHLY-01",
        "district": "Hooghly",
        "block": "Khanakul-I",
        "land_use": "Agricultural - Kharif Crop / Aman Paddy",
        "state": "West Bengal",
        "source": "ISRO Bhuvan LULC 25K"
      },
      "geometry": {
        "type": "Polygon",
        "coordinates": [
          [
            [87.81, 22.70],
            [87.92, 22.70],
            [87.92, 22.82],
            [87.81, 22.82],
            [87.81, 22.70]
          ]
        ]
      }
    },
    {
      "type": "Feature",
      "properties": {
        "id": "CROPLAND-HOOGHLY-02",
        "district": "Hooghly",
        "block": "Khanakul-II",
        "land_use": "Agricultural - Kharif Crop / Aman Paddy",
        "state": "West Bengal",
        "source": "ISRO Bhuvan LULC 25K"
      },
      "geometry": {
        "type": "Polygon",
        "coordinates": [
          [
            [87.83, 22.64],
            [87.95, 22.64],
            [87.95, 22.73],
            [87.83, 22.73],
            [87.83, 22.64]
          ]
        ]
      }
    },
    {
      "type": "Feature",
      "properties": {
        "id": "CROPLAND-HOOGHLY-03",
        "district": "Hooghly",
        "block": "Pursurah",
        "land_use": "Agricultural - Kharif Crop / Aman Paddy",
        "state": "West Bengal",
        "source": "ISRO Bhuvan LULC 25K"
      },
      "geometry": {
        "type": "Polygon",
        "coordinates": [
          [
            [87.88, 22.78],
            [87.99, 22.78],
            [87.99, 22.89],
            [87.88, 22.89],
            [87.88, 22.78]
          ]
        ]
      }
    }
  ]
}
