{
"type": "FeatureCollection",
"name": "wb_admin_blocks",
"crs": { "type": "name", "properties": { "name": "urn:ogc:def:crs:OGC:1.3:CRS84" } },
"features": [
{ "type": "Feature", "properties": { "state": "West Bengal", "district": "Hooghly", "block_name": "Khanakul-I" }, "geometry": { "type": "MultiPolygon", "coordinates": [ [ [ [ 87.82, 22.72 ], [ 87.9, 22.72 ], [ 87.91, 22.8 ], [ 87.83, 22.8 ], [ 87.82, 22.72 ] ] ] ] } },
{ "type": "Feature", "properties": { "state": "West Bengal", "district": "Hooghly", "block_name": "Khanakul-II" }, "geometry": { "type": "MultiPolygon", "coordinates": [ [ [ [ 87.83, 22.64 ], [ 87.93, 22.64 ], [ 87.93, 22.72 ], [ 87.83, 22.72 ], [ 87.83, 22.64 ] ] ] ] } },
{ "type": "Feature", "properties": { "state": "West Bengal", "district": "Hooghly", "block_name": "Pursurah" }, "geometry": { "type": "MultiPolygon", "coordinates": [ [ [ [ 87.88, 22.78 ], [ 87.98, 22.78 ], [ 87.98, 22.88 ], [ 87.88, 22.88 ], [ 87.88, 22.78 ] ] ] ] } },
{ "type": "Feature", "properties": { "state": "West Bengal", "district": "Hooghly", "block_name": "Arambagh" }, "geometry": { "type": "MultiPolygon", "coordinates": [ [ [ [ 87.75, 22.8 ], [ 87.88, 22.8 ], [ 87.88, 22.92 ], [ 87.75, 22.92 ], [ 87.75, 22.8 ] ] ] ] } },
{ "type": "Feature", "properties": { "state": "West Bengal", "district": "Howrah", "block_name": "Uluberia-I" }, "geometry": { "type": "MultiPolygon", "coordinates": [ [ [ [ 87.95, 22.45 ], [ 88.1, 22.45 ], [ 88.1, 22.58 ], [ 87.95, 22.58 ], [ 87.95, 22.45 ] ] ] ] } }
]
}
